ONEWEB-0707             
1 61612U 24188U   25131.19661019  .00000011  00000+0 -51001-5 0  9998
2 61612  87.8785 116.3900 0002368 104.0950 256.0441 13.10373238 28710
ONEWEB-0708             
1 61613U 24188V   25130.90942604 -.00000580  00000+0 -16980-2 0  9995
2 61613  87.8844 116.4349 0002743  97.6245 262.5194 13.10373386 30619
